{
  "type": "FeatureCollection",
  "features": [
    {
      "type": "Feature",
      "properties": {
        "norad_id": 66505,
        "name": "STARLINK-34766",
        "group": "last-30-days",
        "lat": 24.26640926707772,
        "lon": 179.55244923866522,
        "alt_km": 412.7554769112767,
        "timestamp": "2025-12-08T08:58:59.556658+00:00",
        "meta_object_name": "STARLINK-34766",
        "meta_object_id": "2025-263W",
        "meta_epoch": "2025-12-07T22:00:03.000096",
        "meta_mean_motion": 15.5185708,
        "meta_eccentricity": 0.00016412,
        "meta_inclination": 43,
        "meta_ra_of_asc_node": 153.2987,
        "meta_arg_of_pericenter": 278.6561,
        "meta_mean_anomaly": 80.3068,
        "meta_ephemeris_type": 0,
        "meta_classification_type": "U",
        "meta_norad_cat_id": 66505,
        "meta_element_set_no": 999,
        "meta_rev_at_epoch": 486,
        "meta_bstar": -0.030189289,
        "meta_mean_motion_dot": -0.0166143,
        "meta_mean_motion_ddot": 0,
        "tle_line1": "1 66505U 25263W   25341.91670139 -.01661430  00000+0 -30189-1 0  9995",
        "tle_line2": "2 66505  43.0000 153.2987 0001641 278.6561  80.3068 15.51857080  4866"
      },
      "geometry": {
        "type": "Point",
        "coordinates": [
          179.55244923866522,
          24.26640926707772
        ]
      }
    },
    {
      "type": "Feature",
      "properties": {
        "norad_id": 66506,
        "name": "STARLINK-34765",
        "group": "last-30-days",
        "lat": 25.401155092803094,
        "lon": -178.74791164512186,
        "alt_km": 412.60531634807285,
        "timestamp": "2025-12-08T08:58:59.556668+00:00",
        "meta_object_name": "STARLINK-34765",
        "meta_object_id": "2025-263X",
        "meta_epoch": "2025-12-07T22:00:03.000096",
        "meta_mean_motion": 15.51857359,
        "meta_eccentricity": 0.00015849,
        "meta_inclination": 43,
        "meta_ra_of_asc_node": 153.2946,
        "meta_arg_of_pericenter": 278.6023,
        "meta_mean_anomaly": 82.2803,
        "meta_ephemeris_type": 0,
        "meta_classification_type": "U",
        "meta_norad_cat_id": 66506,
        "meta_element_set_no": 999,
        "meta_rev_at_epoch": 486,
        "meta_bstar": -0.030261239,
        "meta_mean_motion_dot": -0.01664968,
        "meta_mean_motion_ddot": 0,
        "tle_line1": "1 66506U 25263X   25341.91670139 -.01664968  00000+0 -30261-1 0  9996",
        "tle_line2": "2 66506  43.0000 153.2946 0001584 278.6023  82.2803 15.51857359  4868"
      },
      "geometry": {
        "type": "Point",
        "coordinates": [
          -178.74791164512186,
          25.401155092803094
        ]
      }
    },
    {
      "type": "Feature",
      "properties": {
        "norad_id": 66507,
        "name": "STARLINK-34767",
        "group": "last-30-days",
        "lat": 27.615822567317224,
        "lon": -175.2433321267264,
        "alt_km": 412.3335285885405,
        "timestamp": "2025-12-08T08:58:59.556678+00:00",
        "meta_object_name": "STARLINK-34767",
        "meta_object_id": "2025-263Y",
        "meta_epoch": "2025-12-07T22:00:03.000096",
        "meta_mean_motion": 15.51849051,
        "meta_eccentricity": 0.0001335,
        "meta_inclination": 43.0005,
        "meta_ra_of_asc_node": 153.2837,
        "meta_arg_of_pericenter": 269.1177,
        "meta_mean_anomaly": 95.6,
        "meta_ephemeris_type": 0,
        "meta_classification_type": "U",
        "meta_norad_cat_id": 66507,
        "meta_element_set_no": 999,
        "meta_rev_at_epoch": 486,
        "meta_bstar": -0.029665472,
        "meta_mean_motion_dot": -0.01634951,
        "meta_mean_motion_ddot": 0,
        "tle_line1": "1 66507U 25263Y   25341.91670139 -.01634951  00000+0 -29665-1 0  9992",
        "tle_line2": "2 66507  43.0005 153.2837 0001335 269.1177  95.6000 15.51849051  4869"
      },
      "geometry": {
        "type": "Point",
        "coordinates": [
          -175.2433321267264,
          27.615822567317224
        ]
      }
    },
    {
      "type": "Feature",
      "properties": {
        "norad_id": 66508,
        "name": "STARLINK-35608",
        "group": "last-30-days",
        "lat": 30.746669763576836,
        "lon": -169.7390546799738,
        "alt_km": 411.9385984026085,
        "timestamp": "2025-12-08T08:58:59.556692+00:00",
        "meta_object_name": "STARLINK-35608",
        "meta_object_id": "2025-263Z",
        "meta_epoch": "2025-12-07T22:00:03.000096",
        "meta_mean_motion": 15.51861666,
        "meta_eccentricity": 0.00016335,
        "meta_inclination": 43.0001,
        "meta_ra_of_asc_node": 153.2701,
        "meta_arg_of_pericenter": 280.2836,
        "meta_mean_anomaly": 90.1858,
        "meta_ephemeris_type": 0,
        "meta_classification_type": "U",
        "meta_norad_cat_id": 66508,
        "meta_element_set_no": 999,
        "meta_rev_at_epoch": 486,
        "meta_bstar": -0.030523381,
        "meta_mean_motion_dot": -0.01678148,
        "meta_mean_motion_ddot": 0,
        "tle_line1": "1 66508U 25263Z   25341.91670139 -.01678148  00000+0 -30523-1 0  9994",
        "tle_line2": "2 66508  43.0001 153.2701 0001633 280.2836  90.1858 15.51861666  4860"
      },
      "geometry": {
        "type": "Point",
        "coordinates": [
          -169.7390546799738,
          30.746669763576836
        ]
      }
    },
    {
      "type": "Feature",
      "properties": {
        "norad_id": 66509,
        "name": "STARLINK-35598",
        "group": "last-30-days",
        "lat": 34.53898133122578,
        "lon": -161.81601176776786,
        "alt_km": 411.4363001208567,
        "timestamp": "2025-12-08T08:58:59.556703+00:00",
        "meta_object_name": "STARLINK-35598",
        "meta_object_id": "2025-263AA",
        "meta_epoch": "2025-12-07T22:00:03.000096",
        "meta_mean_motion": 15.51858182,
        "meta_eccentricity": 0.00013889,
        "meta_inclination": 43.0001,
        "meta_ra_of_asc_node": 153.2491,
        "meta_arg_of_pericenter": 269.4101,
        "meta_mean_anomaly": 108.7228,
        "meta_ephemeris_type": 0,
        "meta_classification_type": "U",
        "meta_norad_cat_id": 66509,
        "meta_element_set_no": 999,
        "meta_rev_at_epoch": 486,
        "meta_bstar": -0.029940768,
        "meta_mean_motion_dot": -0.01649089,
        "meta_mean_motion_ddot": 0,
        "tle_line1": "1 66509U 25263AA  25341.91670139 -.01649089  00000+0 -29941-1 0  9999",
        "tle_line2": "2 66509  43.0001 153.2491 0001388 269.4101 108.7228 15.51858182  4864"
      },
      "geometry": {
        "type": "Point",
        "coordinates": [
          -161.81601176776786,
          34.53898133122578
        ]
      }
    },
    {
      "type": "Feature",
      "properties": {
        "norad_id": 66510,
        "name": "STARLINK-35600",
        "group": "last-30-days",
        "lat": 31.74555697636285,
        "lon": -167.81320703573297,
        "alt_km": 411.7555036930771,
        "timestamp": "2025-12-08T08:58:59.556713+00:00",
        "meta_object_name": "STARLINK-35600",
        "meta_object_id": "2025-263AB",
        "meta_epoch": "2025-12-07T22:00:03.000096",
        "meta_mean_motion": 15.51849682,
        "meta_eccentricity": 0.00013425,
        "meta_inclination": 43.0003,
        "meta_ra_of_asc_node": 153.2636,
        "meta_arg_of_pericenter": 270.8886,
        "meta_mean_anomaly": 101.4982,
        "meta_ephemeris_type": 0,
        "meta_classification_type": "U",
        "meta_norad_cat_id": 66510,
        "meta_element_set_no": 999,
        "meta_rev_at_epoch": 486,
        "meta_bstar": -0.02972272,
        "meta_mean_motion_dot": -0.01637824,
        "meta_mean_motion_ddot": 0,
        "tle_line1": "1 66510U 25263AB  25341.91670139 -.01637824  00000+0 -29723-1 0  9993",
        "tle_line2": "2 66510  43.0003 153.2636 0001342 270.8886 101.4982 15.51849682  4867"
      },
      "geometry": {
        "type": "Point",
        "coordinates": [
          -167.81320703573297,
          31.74555697636285
        ]
      }
    },
    {
      "type": "Feature",
      "properties": {
        "norad_id": 66511,
        "name": "STARLINK-35444",
        "group": "last-30-days",
        "lat": 33.63321025477432,
        "lon": -163.87233061908023,
        "alt_km": 411.58845808816386,
        "timestamp": "2025-12-08T08:58:59.556723+00:00",
        "meta_object_name": "STARLINK-35444",
        "meta_object_id": "2025-263AC",
        "meta_epoch": "2025-12-07T22:00:03.000096",
        "meta_mean_motion": 15.5187053,
        "meta_eccentricity": 0.00015435,
        "meta_inclination": 43.0001,
        "meta_ra_of_asc_node": 153.2548,
        "meta_arg_of_pericenter": 277.794,
        "meta_mean_anomaly": 98.4181,
        "meta_ephemeris_type": 0,
        "meta_classification_type": "U",
        "meta_norad_cat_id": 66511,
        "meta_element_set_no": 999,
        "meta_rev_at_epoch": 486,
        "meta_bstar": -0.03070344,
        "meta_mean_motion_dot": -0.01687452,
        "meta_mean_motion_ddot": 0,
        "tle_line1": "1 66511U 25263AC  25341.91670139 -.01687452  00000+0 -30703-1 0  9996",
        "tle_line2": "2 66511  43.0001 153.2548 0001543 277.7940  98.4181 15.51870530  4860"
      },
      "geometry": {
        "type": "Point",
        "coordinates": [
          -163.87233061908023,
          33.63321025477432
        ]
      }
    }
  ]
}